STARLINK-1279           
1 45360U 20019A   20170.25002315 -.00014314  00000-0 -31999-3 0  9997
2 45360  53.0014 164.5907 0000969  49.7001 180.8488 15.42166132 15026
STARLINK-1301           
1 45361U 20019B   20170.41667824  .00039948  00000-0  27452-2 0  9994
2 45361  53.0072 170.1701 0001494  71.1901 159.8161 15.05582919 14968
STARLINK-1306           
1 45362U 20019C   20170.25002315 -.00028322  00000-0 -21074-2 0  9995
2 45362  52.9997 190.4214 0001328  88.9727 147.3536 15.02343608 14678
STARLINK-1311           
1 45363U 20019D   20169.49515346  .00061541  00000-0  44003-3 0  9999
2 45363  52.9949 165.9994 0007800  40.3423 319.8171 15.73140674 14941
STARLINK-1313           
1 45364U 20019E   20170.25002315 -.00016592  00000-0 -37194-3 0  9994
2 45364  52.9985 164.5579 0000731  28.0141 214.4179 15.42212100 15020
STARLINK-1317           
1 45365U 20019F   20169.91668981  .00046658  00000-0  32011-2 0  9999
2 45365  52.9963 172.4740 0001715  78.0265  51.4019 15.05570036  1751
STARLINK-1262           
1 45366U 20019G   20170.41667824  .00014578  00000-0  10182-2 0  9993
2 45366  52.9972 190.2204 0001169  98.9805  75.8689 15.05557584 14692
STARLINK-1273           
1 45367U 20019H   20170.25002315 -.00021154  00000-0 -14366-2 0  9992
2 45367  52.9978 190.9681 0001080 103.9267 139.1102 15.05590572 14661
STARLINK-1276           
1 45368U 20019J   20170.25002315 -.00022485  00000-0 -15276-2 0  9992
2 45368  52.9987 190.9625 0001071  93.7891 293.1822 15.05611745 14676
STARLINK-1277           
1 45369U 20019K   20170.25002315 -.00025829  00000-0 -17596-2 0  9995
2 45369  52.9985 190.9632 0001512  98.4489 306.5916 15.05588033 14674
STARLINK-1281           
1 45370U 20019L   20170.25002315 -.00032929  00000-0 -22495-2 0  9990
2 45370  52.9930 190.9908 0001140  85.6643  13.3255 15.05610069 14640
STARLINK-1287           
1 45371U 20019M   20169.91668981  .00119457  00000-0  80854-2 0  9992
2 45371  52.9978 192.4649 0001404  92.9194 196.3763 15.05554924  1792
STARLINK-1288           
1 45372U 20019N   20170.25002315 -.00028616  00000-0 -19522-2 0  9997
2 45372  52.9996 190.9663 0001444  91.9964 133.0581 15.05589603 14668
STARLINK-1295           
1 45373U 20019P   20170.41667824  .00013556  00000-0  94797-3 0  9991
2 45373  52.9979 190.2181 0001374  78.6315  60.1538 15.05571873 14697
STARLINK-1300           
1 45374U 20019Q   20170.25002315 -.00024284  00000-0 -16530-2 0  9992
2 45374  52.9979 190.9667 0001357  90.3517 242.6715 15.05583506 14667
STARLINK-1302           
1 45375U 20019R   20170.41667824  .00012303  00000-0  86171-3 0  9999
2 45375  52.9981 190.2187 0001495  87.3408 357.5111 15.05596116 14699
STARLINK-1304           
1 45376U 20019S   20170.41667824  .00011156  00000-0  78366-3 0  9992
2 45376  53.0000 190.2198 0001088  91.9864 262.8530 15.05577323 14682
STARLINK-1305           
1 45377U 20019T   20170.25002315 -.00022450  00000-0 -15247-2 0  9992
2 45377  52.9967 190.9662 0001448  93.0549 275.9241 15.05623338 14670
STARLINK-1310           
1 45378U 20019U   20170.25002315 -.00034787  00000-0 -23801-2 0  9994
2 45378  52.9989 190.9600 0000918  91.3125 349.8200 15.05580074 14674
STARLINK-1319           
1 45379U 20019V   20170.16667824 -.00024041  00000-0 -16347-2 0  9996
2 45379  52.9988 191.3358 0001424 108.8894 222.1911 15.05618983 14650
STARLINK-1207           
1 45380U 20019W   20170.25002315 -.00018435  00000-0 -12492-2 0  9993
2 45380  53.0004 170.9565 0002108  75.2194 241.9629 15.05583314 14953
STARLINK-1258           
1 45381U 20019X   20170.25002315  .00032823  00000-0  22622-2 0  9995
2 45381  53.0004 170.9563 0001912  72.8750 190.3394 15.05566719 14939
STARLINK-1264           
1 45382U 20019Y   20170.25002315 -.00026405  00000-0 -17989-2 0  9997
2 45382  52.9994 170.9566 0001612  72.0287 299.1296 15.05597817 14766
STARLINK-1266           
1 45383U 20019Z   20169.91668981  .00040411  00000-0  27769-2 0  9994
2 45383  53.0010 172.4509 0001435  72.7346 218.6933 15.05578377  1791
STARLINK-1267           
1 45384U 20019AA  20170.41667824  .00036124  00000-0  24860-2 0  9992
2 45384  53.0000 170.2088 0002029  71.4096 105.5138 15.05576135 14972
STARLINK-1268           
1 45385U 20019AB  20170.36210484  .00006973  00000-0  76192-4 0  9999
2 45385  52.9977 164.3321 0001564 156.0588 204.0498 15.64642545 15055
STARLINK-1272           
1 45386U 20019AC  20170.41667824  .03010279  00000-0  14281+0 0  9993
2 45386  52.9999 168.8739 0003565 119.9478 340.5426 15.14811590 14993
STARLINK-1274           
1 45387U 20019AD  20170.41667824  .02146676  00000-0  67218-1 0  9994
2 45387  52.9953 168.3048 0002338  26.9536 299.3551 15.29079769 14979
STARLINK-1280           
1 45388U 20019AE  20170.25002315 -.00028286  00000-0 -22923-2 0  9996
2 45388  53.0014 189.4455 0001372  92.3138 149.3200 14.99101102 14684
STARLINK-1283           
1 45389U 20019AF  20170.25002315 -.00023745  00000-0 -16160-2 0  9998
2 45389  52.9987 170.9678 0001541  64.6417  90.5851 15.05579106 14943
STARLINK-1284           
1 45390U 20019AG  20170.41667824  .00037417  00000-0  25743-2 0  9996
2 45390  53.0006 170.2090 0001596  70.2106  34.7609 15.05569096 14968
STARLINK-1289           
1 45391U 20019AH  20170.25002315 -.00020910  00000-0 -14189-2 0  9991
2 45391  52.9983 170.9592 0001398  54.6999 154.4536 15.05613097 14668
STARLINK-1290           
1 45392U 20019AJ  20170.25002315 -.00012891  00000-0 -86615-3 0  9995
2 45392  52.9927 171.1522 0001304  59.1726  41.8950 15.05623041 14667
STARLINK-1291           
1 45393U 20019AK  20170.25002315 -.00018557  00000-0 -12572-2 0  9991
2 45393  53.0014 170.9530 0001811  73.9499 315.1388 15.05594638 14703
STARLINK-1292           
1 45394U 20019AL  20170.41667824  .00037363  00000-0  25707-2 0  9990
2 45394  53.0000 170.2148 0001649  64.6705   4.1974 15.05567978 14706
STARLINK-1297           
1 45395U 20019AM  20170.41667824  .01431103  00000-0  82300-1 0  9993
2 45395  53.0024 170.1284 0001233 295.8198 323.2471 15.08785520 14723
STARLINK-1303           
1 45396U 20019AN  20169.91668981  .00036485  00000-0  25104-2 0  9995
2 45396  52.9983 172.4585 0000843  86.2946  97.1212 15.05578448  1793
STARLINK-1307           
1 45397U 20019AP  20170.25002315 -.00015496  00000-0 -10464-2 0  9992
2 45397  52.9873 171.1060 0002120  72.7478  46.3263 15.05587307 14763
STARLINK-1312           
1 45398U 20019AQ  20169.91668981  .00036245  00000-0  24952-2 0  9991
2 45398  52.9992 172.4602 0001568 102.3747  63.0915 15.05561428  1791
STARLINK-1255           
1 45399U 20019AR  20170.41667824  .03372109  00000-0  37090-1 0  9995
2 45399  52.9977 164.4689 0004749 222.4945 278.9575 15.59049301 14859
STARLINK-1213           
1 45400U 20019AS  20170.41667824  .02506536  00000-0  29465-1 0  9997
2 45400  52.9992 164.3383 0001908 202.3368 344.2542 15.57717795 14789
STARLINK-1256           
1 45401U 20019AT  20170.41667824  .02602396  00000-0  30255-1 0  9998
2 45401  52.9991 164.3374 0002787 221.5983 329.6515 15.57895979 14857
STARLINK-1257           
1 45402U 20019AU  20170.41667824  .02330738  00000-0  26703-1 0  9990
2 45402  52.9991 164.3113 0004828 240.7126 314.9469 15.58116904 14859
STARLINK-1259           
1 45403U 20019AV  20170.41667824  .02630601  00000-0  31148-1 0  9992
2 45403  52.9992 164.3260 0002146 192.7838 344.5040 15.57363239 14859
STARLINK-1260           
1 45404U 20019AW  20170.41667824  .03540027  00000-0  42422-1 0  9993
2 45404  52.9997 164.3812 0007591 233.0163 285.0542 15.56563516 14762
STARLINK-1263           
1 45405U 20019AX  20170.41667824  .03861015  00000-0  44348-1 0  9996
2 45405  52.9983 164.3351 0006000 240.4107 301.4578 15.57361566 14764
STARLINK-1265           
1 45406U 20019AY  20170.41667824  .03746409  00000-0  44090-1 0  9990
2 45406  53.0000 164.3704 0006543 235.3238 296.7026 15.56828991 14762
STARLINK-1275           
1 45407U 20019AZ  20170.41667824  .04833660  00000-0  57704-1 0  9994
2 45407  52.9958 164.3981 0003234 168.1882 340.2189 15.56028366 14765
STARLINK-1278           
1 45408U 20019BA  20170.25002315 -.00028139  00000-0 -22815-2 0  9996
2 45408  53.0007 189.4123 0001250  92.7659 155.7350 14.99080069 14403
STARLINK-1282           
1 45409U 20019BB  20170.41667824  .03522351  00000-0  43287-1 0  9998
2 45409  52.9978 164.4034 0003096 159.2481 338.9309 15.55884468 14772
STARLINK-1285           
1 45410U 20019BC  20170.41667824  .02576874  00000-0  30754-1 0  9993
2 45410  53.0001 164.3508 0004936 232.3815 300.1725 15.57229629 14762
STARLINK-1293           
1 45411U 20019BD  20170.41667824  .03611593  00000-0  38909-1 0  9993
2 45411  52.9977 164.4169 0005939 230.5964 279.2397 15.59347889 14768
STARLINK-1296           
1 45412U 20019BE  20170.41667824  .03916866  00000-0  45934-1 0  9991
2 45412  52.9993 164.3764 0007949 238.6743 284.3149 15.56740395 14762
STARLINK-1298           
1 45413U 20019BF  20170.41667824  .03535334  00000-0  37941-1 0  9998
2 45413  52.9979 164.3983 0004628 227.2651 286.7856 15.59528180 14853
STARLINK-1309           
1 45414U 20019BG  20170.41667824  .03679212  00000-0  44678-1 0  9998
2 45414  52.9997 164.3940 0003156 163.3423 339.9289 15.56036760 14776
STARLINK-1316           
1 45415U 20019BH  20170.41667824  .01723118  00000-0  19871-1 0  9999
2 45415  52.9992 164.3149 0003962 241.7084 318.5609 15.58396781 14786
STARLINK-1318           
1 45416U 20019BJ  20170.41667824  .03684888  00000-0  44184-1 0  9997
2 45416  52.9988 164.3981 0004623 219.3901 293.9187 15.56382900 14772
STARLINK-1286           
1 45417U 20019BK  20170.41667824  .00015673  00000-0  11406-2 0  9997
2 45417  52.9977 189.8078 0001519  80.4996 147.9608 15.03959728 14699
STARLINK-1299           
1 45418U 20019BL  20170.38245419 -.00001505  00000-0 -10137-3 0  9998
2 45418  53.0015 188.5712 0000751  87.6785 272.4287 14.99074813 14456
